BEIDOU-3 IGSO-3         
1 44709U 19073A   26069.98346678 -.00000143  00000+0  00000+0 0  9995
2 44709  54.9673 281.9576 0040728 188.7089 171.2538  1.00267242 23477
TIBA-1                  
1 44800U 19080A   26073.70251042  .00000155  00000+0  00000+0 0  9992
2 44800   0.0590   7.7578 0002115 346.4267 106.5148  1.00273534 23114
INMARSAT GX5            
1 44801U 19080B   26074.27961642  .00000074  00000+0  00000+0 0  9990
2 44801   0.0559 355.6225 0002139   7.5077 281.4126  1.00271120  5842
JCSAT-18 (KACIFIC 1)    
1 44868U 19091A   26073.46919825 -.00000202  00000+0  00000+0 0  9995
2 44868   0.0408 315.9022 0000357 112.3220  62.7590  1.00271070 23060
ELEKTRO-L 3             
1 44903U 19095A   26072.58515229 -.00000096  00000+0  00000+0 0  9992
2 44903   0.0380 340.0026 0001508   9.4736 108.2976  1.00270722 22751
SHIJIAN-20 (SJ-20)      
1 44910U 19097A   26071.85625134 -.00000002  00000+0  00000+0 0  9995
2 44910   4.6699  76.2395 0001536  16.3150  96.4860  1.00082407 22736
TJS-5                   
1 44978U 20002A   26071.83844752 -.00000342  00000+0  00000+0 0  9991
2 44978   0.2588 269.6650 0004599 128.5651 181.5791  1.00268883 22738
GSAT-30                 
1 45026U 20005A   26073.94151665 -.00000165  00000+0  00000+0 0  9990
2 45026   0.0141 127.3759 0001267 305.7819 161.3217  1.00271430 22562
EUTELSAT KONNECT        
1 45027U 20005B   26073.35600394  .00000049  00000+0  00000+0 0  9994
2 45027   0.0668  97.4929 0001046 221.3319 348.5168  1.00272524 23386
JCSAT-17                
1 45245U 20013A   26074.19002905 -.00000313  00000+0  00000+0 0  9997
2 45245   5.3946 355.9279 0004424   1.1917  20.0540  1.00271492 22294
GEO-KOMPSAT-2B          
1 45246U 20013B   26073.73650319 -.00000345  00000+0  00000+0 0  9990
2 45246   0.0448 328.0290 0001435   1.0664 236.6484  1.00270893 22336
BEIDOU-3 G2             
1 45344U 20017A   26074.15480422 -.00000139  00000+0  00000+0 0  9997
2 45344   2.6744  45.7550 0002741 323.6454 299.1401  1.00272327 22310
BEIDOU-3 G3             
1 45807U 20040A   26074.08954396 -.00000353  00000+0  00000+0 0  9993
2 45807   2.2145  67.1502 0004845 325.3989 282.9054  1.00270422 21125
APSTAR-6D               
1 45863U 20045A   26072.02615433 -.00000317  00000+0  00000+0 0  9998
2 45863   0.0395 107.0519 0002994 327.1340 239.9300  1.00276516 20895
KOREASAT 116            
1 45920U 20048A   26074.01934366 -.00000363  00000+0  00000+0 0  9996
2 45920   0.0195 249.8356 0000902 105.0562 300.8808  1.00275011 20695
EXPRESS 103             
1 45985U 20053A   26073.58761553 -.00000281  00000+0  00000+0 0  9999
2 45985   0.0184 259.3554 0000228 167.4219  53.4654  1.00271619 20704
EXPRESS 80              
1 45986U 20053B   26073.30025155  .00000000  00000+0  00000+0 0  9999
2 45986   0.0196 186.1346 0001275  85.0672  88.7836  1.00269879 20680
